EUTELSAT QUANTUM        
1 49056U 21069B   25238.90600487  .00000000  00000+0  00000+0 0  9994
2 49056   0.0131 107.2802 0001964  65.5840 176.3758  1.00272491 14973
EUTELSAT KONNECT VHTS   
1 53765U 22110A   25238.81532584  .00000013  00000+0  00000+0 0  9990
2 53765   0.0562 104.1782 0002682  39.1762 128.1782  1.00270641  3878
EUTELSAT HOTBIRD 13F    
1 54048U 22134A   25238.31751867  .00000082  00000+0  00000+0 0  9999
2 54048   0.0546 293.9253 0002014  69.1593  99.0306  1.00272083 10428
EUTELSAT HOTBIRD 13G    
1 54225U 22146A   25238.31751867  .00000082  00000+0  00000+0 0  9999
2 54225   0.0515 235.0421 0001989 302.5274 284.5317  1.00272311  4504
EUTELSAT 10B            
1 54259U 22157A   25238.81671252  .00000065  00000+0  00000+0 0  9993
2 54259   0.0556 102.1934 0001285   4.7719 172.3304  1.00272389 10066
EUTELSAT 36D            
1 59346U 24059A   25238.88864049  .00000152  00000+0  00000+0 0  9990
2 59346   0.0030 168.1296 0000217 329.8754 193.1302  1.00271797  5191
